{"type": "FeatureCollection", "features": [ {"type": "Feature", "properties": {"norad_id": 66052, "name": "HRC MONOBLOCK CAMERA", "group": "stations", "lat": 51.51484004505189, "lon": 175.34953974520624, "alt_km": 396.4039554333349, "timestamp": "2025-12-24T22:42:20.779064+00:00", "meta": {"OBJECT_NAME": "HRC MONOBLOCK CAMERA", "OBJECT_ID": "1998-067XR", "EPOCH": "2025-12-23T23:10:15.977280", "MEAN_MOTION": 15.54901889, "ECCENTRICITY": 0.0002152, "INCLINATION": 51.6306, "RA_OF_ASC_NODE": 85.5033, "ARG_OF_PERICENTER": 238.968, "MEAN_ANOMALY": 121.11, "EPHEMERIS_TYPE": 0, "CLASSIFICATION_TYPE": "U", "NORAD_CAT_ID": 66052, "ELEMENT_SET_NO": 999, "REV_AT_EPOCH": 1058, "BSTAR": 0.0005004, "MEAN_MOTION_DOT": 0.00033738, "MEAN_MOTION_DDOT": 0}, "tle": {"line1": "1 66052U 98067XR  25357.96546270  .00033738  00000+0  50040-3 0  9995", "line2": "2 66052  51.6306  85.5033 0002152 238.9680 121.1100 15.54901889 10582"}}, "geometry": {"type": "Point", "coordinates": [175.34953974520624, 51.51484004505189]}}, {"type": "Feature", "properties": {"norad_id": 66174, "name": "HTV-X1", "group": "stations", "lat": 36.555353565466966, "lon": -133.9475211953963, "alt_km": 414.56541672850835, "timestamp": "2025-12-24T22:42:20.779075+00:00", "meta": {"OBJECT_NAME": "HTV-X1", "OBJECT_ID": "2025-241A", "EPOCH": "2025-12-24T05:07:18.077088", "MEAN_MOTION": 15.49773492, "ECCENTRICITY": 0.00031703, "INCLINATION": 51.6319, "RA_OF_ASC_NODE": 85.6574, "ARG_OF_PERICENTER": 294.284, "MEAN_ANOMALY": 65.7818, "EPHEMERIS_TYPE": 0, "CLASSIFICATION_TYPE": "U", "NORAD_CAT_ID": 66174, "ELEMENT_SET_NO": 999, "REV_AT_EPOCH": 51, "BSTAR": 0.00022737508, "MEAN_MOTION_DOT": 0.0001244, "MEAN_MOTION_DDOT": 0}, "tle": {"line1": "1 66174U 25241A   25358.21340367  .00012440  00000+0  22738-3 0  9992", "line2": "2 66174  51.6319  85.6574 0003170 294.2840  65.7818 15.49773492   518"}}, "geometry": {"type": "Point", "coordinates": [-133.9475211953963, 36.555353565466966]}}, {"type": "Feature", "properties": {"norad_id": 66515, "name": "SZ-21 MODULE", "group": "stations", "lat": 31.79906864936661, "lon": -13.872800438935569, "alt_km": 373.11570935435157, "timestamp": "2025-12-24T22:42:20.779085+00:00", "meta": {"OBJECT_NAME": "SZ-21 MODULE", "OBJECT_ID": "2025-246C", "EPOCH": "2025-12-24T05:36:50.034816", "MEAN_MOTION": 15.63078368, "ECCENTRICITY": 0.00048386, "INCLINATION": 41.477, "RA_OF_ASC_NODE": 305.9006, "ARG_OF_PERICENTER": 322.6697, "MEAN_ANOMALY": 37.3806, "EPHEMERIS_TYPE": 0, "CLASSIFICATION_TYPE": "U", "NORAD_CAT_ID": 66515, "ELEMENT_SET_NO": 999, "REV_AT_EPOCH": 624, "BSTAR": 0.00031978683, "MEAN_MOTION_DOT": 0.00029746, "MEAN_MOTION_DDOT": 0}, "tle": {"line1": "1 66515U 25246C   25358.23391244  .00029746  00000+0  31979-3 0  9992", "line2": "2 66515  41.4770 305.9006 0004838 322.6697  37.3806 15.63078368  6245"}}, "geometry": {"type": "Point", "coordinates": [-13.872800438935569, 31.79906864936661]}}, {"type": "Feature", "properties": {"norad_id": 66645, "name": "SHENZHOU-22", "group": "stations", "lat": -2.6934104934897065, "lon": -60.47949302089953, "alt_km": 392.8959513106902, "timestamp": "2025-12-24T22:42:20.779095+00:00", "meta": {"OBJECT_NAME": "SHENZHOU-22", "OBJECT_ID": "2025-272A", "EPOCH": "2025-12-24T05:49:05.894976", "MEAN_MOTION": 15.59630763, "ECCENTRICITY": 0.00081096, "INCLINATION": 41.4687, "RA_OF_ASC_NODE": 306.8504, "ARG_OF_PERICENTER": 132.6319, "MEAN_ANOMALY": 227.5205, "EPHEMERIS_TYPE": 0, "CLASSIFICATION_TYPE": "U", "NORAD_CAT_ID": 66645, "ELEMENT_SET_NO": 999, "REV_AT_EPOCH": 26550, "BSTAR": 0.00022952509, "MEAN_MOTION_DOT": 0.00018555, "MEAN_MOTION_DDOT": 0}, "tle": {"line1": "1 66645U 25272A   25358.24242934  .00018555  00000+0  22953-3 0  9995", "line2": "2 66645  41.4687 306.8504 0008109 132.6319 227.5205 15.59630763265504"}}, "geometry": {"type": "Point", "coordinates": [-60.47949302089953, -2.6934104934897065]}}, {"type": "Feature", "properties": {"norad_id": 66664, "name": "SOYUZ-MS 28", "group": "stations", "lat": 36.55535233496844, "lon": -133.9475193302749, "alt_km": 414.5654169069585, "timestamp": "2025-12-24T22:42:20.779105+00:00", "meta": {"OBJECT_NAME": "SOYUZ-MS 28", "OBJECT_ID": "2025-275A", "EPOCH": "2025-12-24T05:07:18.077088", "MEAN_MOTION": 15.49773492, "ECCENTRICITY": 0.00031703, "INCLINATION": 51.6319, "RA_OF_ASC_NODE": 85.6574, "ARG_OF_PERICENTER": 294.284, "MEAN_ANOMALY": 65.7818, "EPHEMERIS_TYPE": 0, "CLASSIFICATION_TYPE": "U", "NORAD_CAT_ID": 66664, "ELEMENT_SET_NO": 999, "REV_AT_EPOCH": 128, "BSTAR": 0.00022737508, "MEAN_MOTION_DOT": 0.0001244, "MEAN_MOTION_DDOT": 0}, "tle": {"line1": "1 66664U 25275A   25358.21340367  .00012440  00000+0  22738-3 0  9993", "line2": "2 66664  51.6319  85.6574 0003170 294.2840  65.7818 15.49773492  1287"}}, "geometry": {"type": "Point", "coordinates": [-133.9475193302749, 36.55535233496844]}}, {"type": "Feature", "properties": {"norad_id": 66906, "name": "1998-067XS", "group": "stations", "lat": -26.08566419052212, "lon": -75.32491802883463, "alt_km": 415.3007215058906, "timestamp": "2025-12-24T22:42:20.779115+00:00", "meta": {"OBJECT_NAME": "1998-067XS", "OBJECT_ID": "1998-067XS", "EPOCH": "2025-12-23T13:19:00.111360", "MEAN_MOTION": 15.51136039, "ECCENTRICITY": 0.00028154, "INCLINATION": 51.6316, "RA_OF_ASC_NODE": 88.7613, "ARG_OF_PERICENTER": 256.8779, "MEAN_ANOMALY": 103.1896, "EPHEMERIS_TYPE": 0, "CLASSIFICATION_TYPE": "U", "NORAD_CAT_ID": 66906, "ELEMENT_SET_NO": 999, "REV_AT_EPOCH": 329, "BSTAR": 0.00048512679, "MEAN_MOTION_DOT": 0.0002847, "MEAN_MOTION_DDOT": 0}, "tle": {"line1": "1 66906U 98067XS  25357.55486240  .00028470  00000+0  48513-3 0  9997", "line2": "2 66906  51.6316  88.7613 0002815 256.8779 103.1896 15.51136039  3290"}}, "geometry": {"type": "Point", "coordinates": [-75.32491802883463, -26.08566419052212]}}, {"type": "Feature", "properties": {"norad_id": 66907, "name": "1998-067XT", "group": "stations", "lat": -48.73672837821503, "lon": 17.147330906384294, "alt_km": 410.1081251307223, "timestamp": "2025-12-24T22:42:20.779126+00:00", "meta": {"OBJECT_NAME": "1998-067XT", "OBJECT_ID": "1998-067XT", "EPOCH": "2025-12-23T11:29:49.841376", "MEAN_MOTION": 15.52745506, "ECCENTRICITY": 0.0003882, "INCLINATION": 51.6313, "RA_OF_ASC_NODE": 89.0045, "ARG_OF_PERICENTER": 291.7662, "MEAN_ANOMALY": 68.2915, "EPHEMERIS_TYPE": 0, "CLASSIFICATION_TYPE": "U", "NORAD_CAT_ID": 66907, "ELEMENT_SET_NO": 999, "REV_AT_EPOCH": 328, "BSTAR": 0.0010348952, "MEAN_MOTION_DOT": 0.00065231, "MEAN_MOTION_DDOT": 0}, "tle": {"line1": "1 66907U 98067XT  25357.47904909  .00065231  00000+0  10349-2 0  9997", "line2": "2 66907  51.6313  89.0045 0003882 291.7662  68.2915 15.52745506  3283"}}, "geometry": {"type": "Point", "coordinates": [17.147330906384294, -48.73672837821503]}}, {"type": "Feature", "properties": {"norad_id": 66908, "name": "1998-067XU", "group": "stations", "lat": -46.409478003177895, "lon": 25.358210657097544, "alt_km": 409.69084317139095, "timestamp": "2025-12-24T22:42:20.779136+00:00", "meta": {"OBJECT_NAME": "1998-067XU", "OBJECT_ID": "1998-067XU", "EPOCH": "2025-12-23T11:28:24.726144", "MEAN_MOTION": 15.52842233, "ECCENTRICITY": 0.00039209, "INCLINATION": 51.6312, "RA_OF_ASC_NODE": 88.9976, "ARG_OF_PERICENTER": 289.9814, "MEAN_ANOMALY": 70.0754, "EPHEMERIS_TYPE": 0, "CLASSIFICATION_TYPE": "U", "NORAD_CAT_ID": 66908, "ELEMENT_SET_NO": 999, "REV_AT_EPOCH": 328, "BSTAR": 0.0010206619, "MEAN_MOTION_DOT": 0.00064549, "MEAN_MOTION_DDOT": 0}, "tle": {"line1": "1 66908U 98067XU  25357.47806396  .00064549  00000+0  10207-2 0  9993", "line2": "2 66908  51.6312  88.9976 0003920 289.9814  70.0754 15.52842233  3282"}}, "geometry": {"type": "Point", "coordinates": [25.358210657097544, -46.409478003177895]}}, {"type": "Feature", "properties": {"norad_id": 66909, "name": "SILVERSAT", "group": "stations", "lat": -42.04206584332501, "lon": 36.0754232206011, "alt_km": 408.86138546964776, "timestamp": "2025-12-24T22:42:20.779148+00:00", "meta": {"OBJECT_NAME": "SILVERSAT", "OBJECT_ID": "1998-067XV", "EPOCH": "2025-12-24T05:58:18.632928", "MEAN_MOTION": 15.53164124, "ECCENTRICITY": 0.00038593, "INCLINATION": 51.6308, "RA_OF_ASC_NODE": 85.1451, "ARG_OF_PERICENTER": 300.0708, "MEAN_ANOMALY": 59.99, "EPHEMERIS_TYPE": 0, "CLASSIFICATION_TYPE": "U", "NORAD_CAT_ID": 66909, "ELEMENT_SET_NO": 999, "REV_AT_EPOCH": 340, "BSTAR": 0.0012166372, "MEAN_MOTION_DOT": 0.00078073, "MEAN_MOTION_DDOT": 0}, "tle": {"line1": "1 66909U 98067XV  25358.24882677  .00078073  00000+0  12166-2 0  9999", "line2": "2 66909  51.6308  85.1451 0003859 300.0708  59.9900 15.53164124  3403"}}, "geometry": {"type": "Point", "coordinates": [36.0754232206011, -42.04206584332501]}}, {"type": "Feature", "properties": {"norad_id": 66910, "name": "1998-067XW", "group": "stations", "lat": -36.517187038481225, "lon": 45.73222594094863, "alt_km": 409.43739291838574, "timestamp": "2025-12-24T22:42:20.779171+00:00", "meta": {"OBJECT_NAME": "1998-067XW", "OBJECT_ID": "1998-067XW", "EPOCH": "2025-12-23T11:23:56.481792", "MEAN_MOTION": 15.5298943, "ECCENTRICITY": 0.00039882, "INCLINATION": 51.6309, "RA_OF_ASC_NODE": 88.9767, "ARG_OF_PERICENTER": 265.4983, "MEAN_ANOMALY": 94.5551, "EPHEMERIS_TYPE": 0, "CLASSIFICATION_TYPE": "U", "NORAD_CAT_ID": 66910, "ELEMENT_SET_NO": 999, "REV_AT_EPOCH": 328, "BSTAR": 0.00097986031, "MEAN_MOTION_DOT": 0.00062264, "MEAN_MOTION_DDOT": 0}, "tle": {"line1": "1 66910U 98067XW  25357.47495928  .00062264  00000+0  97986-3 0  9993", "line2": "2 66910  51.6309  88.9767 0003988 265.4983  94.5551 15.52989430  3286"}}, "geometry": {"type": "Point", "coordinates": [45.73222594094863, -36.517187038481225]}}]}